{
  "type": "FeatureCollection",
  "features": [
    {
      "type": "Feature",
      "properties": {
        "norad_id": 34481,
        "name": "COSMOS 2251 DEB",
        "group": "cosmos-2251-debris",
        "lat": 34.51390886304993,
        "lon": -151.67284939709813,
        "alt_km": 761.9992959388537,
        "timestamp": "2025-12-20T05:41:50.425803+00:00",
        "meta_object_name": "COSMOS 2251 DEB",
        "meta_object_id": "1993-036UA",
        "meta_epoch": "2025-12-19T07:49:19.232256",
        "meta_mean_motion": 14.32573647,
        "meta_eccentricity": 0.007051,
        "meta_inclination": 73.9803,
        "meta_ra_of_asc_node": 41.3906,
        "meta_arg_of_pericenter": 214.5349,
        "meta_mean_anomaly": 271.1757,
        "meta_ephemeris_type": 0,
        "meta_classification_type": "U",
        "meta_norad_cat_id": 34481,
        "meta_element_set_no": 999,
        "meta_rev_at_epoch": 87543,
        "meta_bstar": 0.00046396,
        "meta_mean_motion_dot": 1.268e-05,
        "meta_mean_motion_ddot": 0,
        "tle_line1": "1 34481U 93036UA  25353.32591704  .00001268  00000+0  46396-3 0  9997",
        "tle_line2": "2 34481  73.9803  41.3906 0070510 214.5349 271.1757 14.32573647875435"
      },
      "geometry": {
        "type": "Point",
        "coordinates": [
          -151.67284939709813,
          34.51390886304993
        ]
      }
    },
    {
      "type": "Feature",
      "properties": {
        "norad_id": 34482,
        "name": "COSMOS 2251 DEB",
        "group": "cosmos-2251-debris",
        "lat": -42.0476963781015,
        "lon": 44.035893593775604,
        "alt_km": 646.6272718927439,
        "timestamp": "2025-12-20T05:41:50.425813+00:00",
        "meta_object_name": "COSMOS 2251 DEB",
        "meta_object_id": "1993-036UB",
        "meta_epoch": "2025-12-19T01:35:20.190624",
        "meta_mean_motion": 14.69302815,
        "meta_eccentricity": 0.00446477,
        "meta_inclination": 74.0361,
        "meta_ra_of_asc_node": 211.3413,
        "meta_arg_of_pericenter": 270.1268,
        "meta_mean_anomaly": 241.8622,
        "meta_ephemeris_type": 0,
        "meta_classification_type": "U",
        "meta_norad_cat_id": 34482,
        "meta_element_set_no": 999,
        "meta_rev_at_epoch": 88280,
        "meta_bstar": 0.0012618865,
        "meta_mean_motion_dot": 7.539e-05,
        "meta_mean_motion_ddot": 0,
        "tle_line1": "1 34482U 93036UB  25353.06620591  .00007539  00000+0  12619-2 0  9993",
        "tle_line2": "2 34482  74.0361 211.3413 0044647 270.1268 241.8622 14.69302815882800"
      },
      "geometry": {
        "type": "Point",
        "coordinates": [
          44.035893593775604,
          -42.0476963781015
        ]
      }
    },
    {
      "type": "Feature",
      "properties": {
        "norad_id": 34544,
        "name": "COSMOS 2251 DEB",
        "group": "cosmos-2251-debris",
        "lat": -72.4069288377554,
        "lon": 77.39477139121453,
        "alt_km": 851.1261591565435,
        "timestamp": "2025-12-20T05:41:50.425824+00:00",
        "meta_object_name": "COSMOS 2251 DEB",
        "meta_object_id": "1993-036UE",
        "meta_epoch": "2025-12-19T21:39:33.180768",
        "meta_mean_motion": 13.54668378,
        "meta_eccentricity": 0.03837931,
        "meta_inclination": 73.914,
        "meta_ra_of_asc_node": 192.4334,
        "meta_arg_of_pericenter": 219.5638,
        "meta_mean_anomaly": 207.4937,
        "meta_ephemeris_type": 0,
        "meta_classification_type": "U",
        "meta_norad_cat_id": 34544,
        "meta_element_set_no": 999,
        "meta_rev_at_epoch": 82979,
        "meta_bstar": 0.00031104972,
        "meta_mean_motion_dot": 3.18e-06,
        "meta_mean_motion_ddot": 0,
        "tle_line1": "1 34544U 93036UE  25353.90246737  .00000318  00000+0  31105-3 0  9991",
        "tle_line2": "2 34544  73.9140 192.4334 0383793 219.5638 207.4937 13.54668378829797"
      },
      "geometry": {
        "type": "Point",
        "coordinates": [
          77.39477139121453,
          -72.4069288377554
        ]
      }
    },
    {
      "type": "Feature",
      "properties": {
        "norad_id": 34546,
        "name": "COSMOS 2251 DEB",
        "group": "cosmos-2251-debris",
        "lat": 41.24277134876914,
        "lon": 40.666444707291966,
        "alt_km": 752.4409558577527,
        "timestamp": "2025-12-20T05:41:50.425834+00:00",
        "meta_object_name": "COSMOS 2251 DEB",
        "meta_object_id": "1993-036UG",
        "meta_epoch": "2025-12-19T11:03:09.535392",
        "meta_mean_motion": 14.45438225,
        "meta_eccentricity": 0.0022033,
        "meta_inclination": 74.0308,
        "meta_ra_of_asc_node": 236.6546,
        "meta_arg_of_pericenter": 309.733,
        "meta_mean_anomaly": 106.1055,
        "meta_ephemeris_type": 0,
        "meta_classification_type": "U",
        "meta_norad_cat_id": 34546,
        "meta_element_set_no": 999,
        "meta_rev_at_epoch": 88123,
        "meta_bstar": 0.00040131,
        "meta_mean_motion_dot": 1.39e-05,
        "meta_mean_motion_ddot": 0,
        "tle_line1": "1 34546U 93036UG  25353.46052703  .00001390  00000+0  40131-3 0  9992",
        "tle_line2": "2 34546  74.0308 236.6546 0022033 309.7330 106.1055 14.45438225881231"
      },
      "geometry": {
        "type": "Point",
        "coordinates": [
          40.666444707291966,
          41.24277134876914
        ]
      }
    },
    {
      "type": "Feature",
      "properties": {
        "norad_id": 34547,
        "name": "COSMOS 2251 DEB",
        "group": "cosmos-2251-debris",
        "lat": -25.55476158702412,
        "lon": 78.25895304496231,
        "alt_km": 669.916565037227,
        "timestamp": "2025-12-20T05:41:50.425845+00:00",
        "meta_object_name": "COSMOS 2251 DEB",
        "meta_object_id": "1993-036UH",
        "meta_epoch": "2025-12-18T22:50:15.370656",
        "meta_mean_motion": 14.72476564,
        "meta_eccentricity": 0.00166938,
        "meta_inclination": 74.0316,
        "meta_ra_of_asc_node": 88.6306,
        "meta_arg_of_pericenter": 167.5365,
        "meta_mean_anomaly": 192.6223,
        "meta_ephemeris_type": 0,
        "meta_classification_type": "U",
        "meta_norad_cat_id": 34547,
        "meta_element_set_no": 999,
        "meta_rev_at_epoch": 88613,
        "meta_bstar": 0.0013141249,
        "meta_mean_motion_dot": 8.336e-05,
        "meta_mean_motion_ddot": 0,
        "tle_line1": "1 34547U 93036UH  25352.95156679  .00008336  00000+0  13141-2 0  9990",
        "tle_line2": "2 34547  74.0316  88.6306 0016693 167.5365 192.6223 14.72476564886132"
      },
      "geometry": {
        "type": "Point",
        "coordinates": [
          78.25895304496231,
          -25.55476158702412
        ]
      }
    },
    {
      "type": "Feature",
      "properties": {
        "norad_id": 34553,
        "name": "COSMOS 2251 DEB",
        "group": "cosmos-2251-debris",
        "lat": -13.57716428105312,
        "lon": 1.5940630853762896,
        "alt_km": 697.7992099401527,
        "timestamp": "2025-12-20T05:41:50.425856+00:00",
        "meta_object_name": "COSMOS 2251 DEB",
        "meta_object_id": "1993-036UP",
        "meta_epoch": "2025-12-19T07:38:57.477984",
        "meta_mean_motion": 14.57779976,
        "meta_eccentricity": 0.0019139,
        "meta_inclination": 74.0238,
        "meta_ra_of_asc_node": 179.3741,
        "meta_arg_of_pericenter": 256.193,
        "meta_mean_anomaly": 158.8027,
        "meta_ephemeris_type": 0,
        "meta_classification_type": "U",
        "meta_norad_cat_id": 34553,
        "meta_element_set_no": 999,
        "meta_rev_at_epoch": 88192,
        "meta_bstar": 0.00076906,
        "meta_mean_motion_dot": 3.497e-05,
        "meta_mean_motion_ddot": 0,
        "tle_line1": "1 34553U 93036UP  25353.31872081  .00003497  00000+0  76906-3 0  9992",
        "tle_line2": "2 34553  74.0238 179.3741 0019139 256.1930 158.8027 14.57779976881928"
      },
      "geometry": {
        "type": "Point",
        "coordinates": [
          1.5940630853762896,
          -13.57716428105312
        ]
      }
    },
    {
      "type": "Feature",
      "properties": {
        "norad_id": 34554,
        "name": "COSMOS 2251 DEB",
        "group": "cosmos-2251-debris",
        "lat": 50.96021165889299,
        "lon": 84.52124149422472,
        "alt_km": 772.946322810365,
        "timestamp": "2025-12-20T05:41:50.425866+00:00",
        "meta_object_name": "COSMOS 2251 DEB",
        "meta_object_id": "1993-036UQ",
        "meta_epoch": "2025-12-18T13:50:31.745184",
        "meta_mean_motion": 14.37950273,
        "meta_eccentricity": 0.00232506,
        "meta_inclination": 74.0391,
        "meta_ra_of_asc_node": 288.2435,
        "meta_arg_of_pericenter": 349.3985,
        "meta_mean_anomaly": 183.4669,
        "meta_ephemeris_type": 0,
        "meta_classification_type": "U",
        "meta_norad_cat_id": 34554,
        "meta_element_set_no": 999,
        "meta_rev_at_epoch": 87839,
        "meta_bstar": 0.00025927252,
        "meta_mean_motion_dot": 7.59e-06,
        "meta_mean_motion_ddot": 0,
        "tle_line1": "1 34554U 93036UQ  25352.57675631  .00000759  00000+0  25927-3 0  9997",
        "tle_line2": "2 34554  74.0391 288.2435 0023250 349.3985 183.4669 14.37950273878395"
      },
      "geometry": {
        "type": "Point",
        "coordinates": [
          84.52124149422472,
          50.96021165889299
        ]
      }
    }
  ]
}